[{"OBJECT_NAME":"OBJECT E","OBJECT_ID":"2025-108E","EPOCH":"2026-03-09T22:47:33.087264","MEAN_MOTION":15.21687985,"ECCENTRICITY":0.00120507,"INCLINATION":97.4733,"RA_OF_ASC_NODE":146.3251,"ARG_OF_PERICENTER":355.0627,"MEAN_ANOMALY":5.0488,"EPHEMERIS_TYPE":0,"CLASSIFICATION_TYPE":"U","NORAD_CAT_ID":64091,"ELEMENT_SET_NO":999,"REV_AT_EPOCH":4434,"BSTAR":0.00076441924,"MEAN_MOTION_DOT":0.00017283,"MEAN_MOTION_DDOT":0},{"OBJECT_NAME":"LANDSAT 5","OBJECT_ID":"1984-021A","EPOCH":"2026-03-09T17:06:39.595392","MEAN_MOTION":15.03956175,"ECCENTRICITY":0.00705197,"INCLINATION":98.0698,"RA_OF_ASC_NODE":343.5816,"ARG_OF_PERICENTER":90.3041,"MEAN_ANOMALY":270.6265,"EPHEMERIS_TYPE":0,"CLASSIFICATION_TYPE":"U","NORAD_CAT_ID":14780,"ELEMENT_SET_NO":999,"REV_AT_EPOCH":77643,"BSTAR":0.00029889959,"MEAN_MOTION_DOT":4.286e-5,"MEAN_MOTION_DDOT":0}]
